[
    {
        "CCSDS_OMM_VERS": "3.0",
        "COMMENT": "GENERATED VIA SPACE-TRACK.ORG API",
        "CREATION_DATE": "2025-04-14T03:05:54",
        "ORIGINATOR": "18 SPCS",
        "OBJECT_NAME": "NAVSTAR 78 (USA 293)",
        "OBJECT_ID": "2019-056A",
        "CENTER_NAME": "EARTH",
        "REF_FRAME": "TEME",
        "TIME_SYSTEM": "UTC",
        "MEAN_ELEMENT_THEORY": "SGP4",
        "EPOCH": "2025-04-13T15:03:53.413920",
        "MEAN_MOTION": "2.00561611",
        "ECCENTRICITY": "0.00498690",
        "INCLINATION": "55.7979",
        "RA_OF_ASC_NODE": "348.1914",
        "ARG_OF_PERICENTER": "193.3615",
        "MEAN_ANOMALY": "348.9453",
        "EPHEMERIS_TYPE": "0",
        "CLASSIFICATION_TYPE": "U",
        "NORAD_CAT_ID": "44506",
        "ELEMENT_SET_NO": "999",
        "REV_AT_EPOCH": "4145",
        "BSTAR": "0.00000000000000",
        "MEAN_MOTION_DOT": "-0.00000092",
        "MEAN_MOTION_DDOT": "0.0000000000000",
        "SEMIMAJOR_AXIS": "26560.524",
        "PERIOD": "717.984",
        "APOAPSIS": "20314.843",
        "PERIAPSIS": "20049.934",
        "OBJECT_TYPE": "PAYLOAD",
        "RCS_SIZE": "LARGE",
        "COUNTRY_CODE": "US",
        "LAUNCH_DATE": "2019-08-22",
        "SITE": "AFETR",
        "DECAY_DATE": null,
        "FILE": "4701263",
        "GP_ID": "285539669",
        "TLE_LINE0": "0 NAVSTAR 78 (USA 293)",
        "TLE_LINE1": "1 44506U 19056A   25103.62770155 -.00000092  00000-0  00000-0 0  9996",
        "TLE_LINE2": "2 44506  55.7979 348.1914 0049869 193.3615 348.9453  2.00561611 41459"
    }
]